MTI                     
1 26102U 00014A   20117.90502082  .00004248  00000-0  63833-4 0  9998
2 26102  97.5119 357.5182 0009454  61.1037 299.1112 15.55438614116506
CFESAT                  
1 30777U 07006F   20117.76059889  .00002721  00000-0  76003-4 0  9992
2 30777  35.4254 284.8782 0004078  77.4888 282.6295 15.36485746728492
SPIRALE A               
1 33751U 09008C   20117.58523491  .00000041  00000-0  18215-3 0  9999
2 33751   2.0331 261.8155 5380022 236.1468  60.8902  4.58737677158900
SPIRALE B               
1 33752U 09008D   20117.45051802  .00002523  00000-0  46717-3 0  9993
2 33752   1.8367 173.8431 6918712  40.2658 354.4843  2.75599035103317
SAPPHIRE                
1 39088U 13009C   20118.27698200 -.00000022  00000-0  75716-5 0  9993
2 39088  98.4743 320.6955 0012582  78.9434 281.3165 14.34206739375176
